     3.04           N: GNSS NAV DATA    M: MIXED            RINEX VERSION / TYPE
ssrcrin-15.6.1x                         20250101 163000 UTC PGM / RUN BY / DATE 
    18                                                      LEAP SECONDS        
                                                            END OF HEADER       
S21 2025 01 01 16 44 00 0.000000000000E+00 0.000000000000E+00 3.194440000000E+05
     4.200468400000E+04 0.000000000000E+00 0.000000000000E+00 6.300000000000E+01
    -3.674932960000E+03 0.000000000000E+00 0.000000000000E+00 3.276700000000E+04
     0.000000000000E+00 0.000000000000E+00 0.000000000000E+00 2.160000000000E+02
E34 2025 01 01 16 30 00-1.551281311549E-04-2.202682480856E-12 0.000000000000E+00
     2.300000000000E+01 1.596250000000E+02 2.492960984689E-09-2.604953593493E+00
     7.504597306252E-06 1.886275131255E-04 1.598149538040E-06 5.440612258911E+03
     3.186000000000E+05-1.676380634308E-08-1.777812522696E+00-3.539025783539E-08
     9.995146263447E-01 3.283125000000E+02-2.163137430808E+00-5.577375177206E-09
     2.050085394286E-10 2.580000000000E+02 2.347000000000E+03
     3.120000000000E+00 0.000000000000E+00 2.328306436539E-09 0.000000000000E+00
     3.194900000000E+05
